{
    "links": {
        "self": "http://www.neowsapp.com/rest/v1/neo/3991615?api_key=iIulBulltgU6a56xZRHN4H3l9WmuAYTsLGpBGhQ2"
    },
    "id": "3991615",
    "neo_reference_id": "3991615",
    "name": "(2020 DL)",
    "designation": "2020 DL",
    "nasa_jpl_url": "http://ssd.jpl.nasa.gov/sbdb.cgi?sstr=3991615",
    "absolute_magnitude_h": 25.377,
    "estimated_diameter": {
        "kilometers": {
            "estimated_diameter_min": 0.0223436941,
            "estimated_diameter_max": 0.0499620188
        },
        "meters": {
            "estimated_diameter_min": 22.3436940821,
            "estimated_diameter_max": 49.9620188361
        },
        "miles": {
            "estimated_diameter_min": 0.0138837235,
            "estimated_diameter_max": 0.0310449496
        },
        "feet": {
            "estimated_diameter_min": 73.3060852924,
            "estimated_diameter_max": 163.9173898783
        }
    },
    "is_potentially_hazardous_asteroid": false,
    "close_approach_data": [
        {
            "close_approach_date": "2020-02-15",
            "close_approach_date_full": "2020-Feb-15 00:30",
            "epoch_date_close_approach": 1581726600000,
            "relative_velocity": {
                "kilometers_per_second": "17.2887578281",
                "kilometers_per_hour": "62239.5281811503",
                "miles_per_hour": "38673.2223856709"
            },
            "miss_distance": {
                "astronomical": "0.0266479726",
                "lunar": "10.3660613414",
                "kilometers": "3986479.940778362",
                "miles": "2477083.7712989156"
            },
            "orbiting_body": "Earth"
        },
        {
            "close_approach_date": "2069-06-16",
            "close_approach_date_full": "2069-Jun-16 08:11",
            "epoch_date_close_approach": 3138595860000,
            "relative_velocity": {
                "kilometers_per_second": "15.3117919797",
                "kilometers_per_hour": "55122.4511270402",
                "miles_per_hour": "34250.9474794656"
            },
            "miss_distance": {
                "astronomical": "0.0986890453",
                "lunar": "38.3900386217",
                "kilometers": "14763670.969213511",
                "miles": "9173719.7492320118"
            },
            "orbiting_body": "Mars"
        },
        {
            "close_approach_date": "2075-03-05",
            "close_approach_date_full": "2075-Mar-05 06:48",
            "epoch_date_close_approach": 3318994080000,
            "relative_velocity": {
                "kilometers_per_second": "26.1392034161",
                "kilometers_per_hour": "94101.1322980961",
                "miles_per_hour": "58470.7841215586"
            },
            "miss_distance": {
                "astronomical": "0.3498716996",
                "lunar": "136.1000911444",
                "kilometers": "52340061.033439852",
                "miles": "32522605.8329078776"
            },
            "orbiting_body": "Earth"
        },
        {
            "close_approach_date": "2076-08-30",
            "close_approach_date_full": "2076-Aug-30 18:31",
            "epoch_date_close_approach": 3366037860000,
            "relative_velocity": {
                "kilometers_per_second": "23.3386527563",
                "kilometers_per_hour": "84019.1499225277",
                "miles_per_hour": "52206.2323504728"
            },
            "miss_distance": {
                "astronomical": "0.3210174707",
                "lunar": "124.8757961023",
                "kilometers": "48023529.849507409",
                "miles": "29840437.7289998842"
            },
            "orbiting_body": "Earth"
        },
        {
            "close_approach_date": "2083-09-07",
            "close_approach_date_full": "2083-Sep-07 10:36",
            "epoch_date_close_approach": 3587538960000,
            "relative_velocity": {
                "kilometers_per_second": "12.706572924",
                "kilometers_per_hour": "45743.6625264461",
                "miles_per_hour": "28423.3329737242"
            },
            "miss_distance": {
                "astronomical": "0.3894762875",
                "lunar": "151.5062758375",
                "kilometers": "58264823.025507625",
                "miles": "36204082.222450225"
            },
            "orbiting_body": "Earth"
        }
    ],
    "orbital_data": {
        "orbit_id": "4",
        "orbit_determination_date": "2020-02-20 04:53:53",
        "first_observation_date": "2020-02-16",
        "last_observation_date": "2020-02-20",
        "data_arc_in_days": 4,
        "observations_used": 23,
        "orbit_uncertainty": "8",
        "minimum_orbit_intersection": ".0103374",
        "jupiter_tisserand_invariant": "4.401",
        "epoch_osculation": "2458897.5",
        "eccentricity": ".4728841095953324",
        "semi_major_axis": "1.467640415092558",
        "inclination": "23.84331089488411",
        "ascending_node_longitude": "147.7307675921867",
        "orbital_period": "649.4233816669255",
        "perihelion_distance": ".7736165841953897",
        "perihelion_argument": "286.816029450142",
        "aphelion_distance": "2.161664245989727",
        "perihelion_time": "2458845.228168654943",
        "mean_anomaly": "28.97625773177316",
        "mean_motion": ".5543379098485183",
        "equinox": "J2000",
        "orbit_class": {
            "orbit_class_type": "APO",
            "orbit_class_description": "Near-Earth asteroid orbits which cross the Earth’s orbit similar to that of 1862 Apollo",
            "orbit_class_range": "a (semi-major axis) > 1.0 AU; q (perihelion) < 1.017 AU"
        }
    },
    "is_sentry_object": false
}